H1 CPF  1  DLR 2021 01 13 10  5132 technosat            
H2  1704205 6203    42829 2021 01 13 00 00 00 2021 01 20 00 00 00    60 1 1  0 0 0
H9
10 0 59229  43200.000000  0      -5189376.339       4659551.470        277178.232
10 0 59229  43260.000000  0      -5131602.669       4728095.192       -172246.796
10 0 59229  43320.000000  0      -5051739.437       4776153.958       -620942.209
10 0 59229  43380.000000  0      -4950304.232       4803335.207      -1067007.350
10 0 59229  43440.000000  0      -4827909.128       4809339.950      -1508553.039
10 0 59229  43500.000000  0      -4685257.180       4793964.768      -1943709.726
10 0 59229  43560.000000  0      -4523138.548       4757103.371      -2370635.627
10 0 59229  43620.000000  0      -4342426.139       4698747.662      -2787524.682
10 0 59229  43680.000000  0      -4144070.883       4618988.344      -3192614.323
10 0 59229  43740.000000  0      -3929096.657       4518015.011      -3584192.982
10 0 59229  43800.000000  0      -3698594.931       4396115.786      -3960607.305
10 0 59229  43860.000000  0      -3453719.146       4253676.518      -4320269.109
10 0 59229  43920.000000  0      -3195678.823       4091179.443      -4661661.976
10 0 59229  43980.000000  0      -2925733.576       3909201.483      -4983347.457
10 0 59229  44040.000000  0      -2645186.948       3708412.149      -5283971.017
10 0 59229  44100.000000  0      -2355380.065       3489570.965      -5562267.610
10 0 59229  44160.000000  0      -2057685.168       3253524.469      -5817066.844
10 0 59229  44220.000000  0      -1753499.072       3001202.794      -6047297.709
10 0 59229  44280.000000  0      -1444236.582       2733615.862      -6251992.853
10 0 59229  44340.000000  0      -1131323.921       2451849.217      -6430292.380
10 0 59229  44400.000000  0       -816192.210       2157059.610      -6581447.188
10 0 59229  44460.000000  0       -500270.980       1850470.246      -6704821.968
10 0 59229  44520.000000  0       -184981.744       1533365.647      -6799897.645
10 0 59229  44580.000000  0        128268.226       1207086.331      -6866273.398
10 0 59229  44640.000000  0        438092.098        873023.244      -6903668.330
10 0 59229  44700.000000  0        743129.605        532611.907      -6911922.660
10 0 59229  44760.000000  0       1042052.990        187326.273      -6890998.365
10 0 59229  44820.000000  0       1333572.714       -161327.593      -6840979.316
10 0 59229  44880.000000  0       1616442.941       -511817.967      -6762070.963
10 0 59229  44940.000000  0       1889466.778       -862594.060      -6654599.633
10 0 59229  45000.000000  0       2151501.352      -1212092.806      -6519011.408
10 0 59229  45060.000000  0       2401462.649      -1558745.757      -6355870.403
10 0 59229  45120.000000  0       2638329.982      -1900985.983      -6165856.653
10 0 59229  45180.000000  0       2861150.230      -2237255.099      -5949763.639
10 0 59229  45240.000000  0       3069041.819      -2566010.429      -5708495.354
10 0 59229  45300.000000  0       3261198.414      -2885732.221      -5443062.776
10 0 59229  45360.000000  0       3436892.195      -3194930.795      -5154579.789
10 0 59229  45420.000000  0       3595476.707      -3492153.555      -4844258.676
10 0 59229  45480.000000  0       3736389.334      -3775991.882      -4513405.242
10 0 59229  45540.000000  0       3859153.417      -4045087.928      -4163413.570
10 0 59229  45600.000000  0       3963380.011      -4298141.293      -3795760.346
10 0 59229  45660.000000  0       4048769.217      -4533915.514      -3411998.757
10 0 59229  45720.000000  0       4115111.126      -4751244.300      -3013752.008
10 0 59229  45780.000000  0       4162286.318      -4949037.547      -2602706.469
10 0 59229  45840.000000  0       4190265.866      -5126287.052      -2180604.447
10 0 59229  45900.000000  0       4199110.829      -5282071.796      -1749236.646
10 0 59229  45960.000000  0       4188971.388      -5415562.831      -1310434.453
10 0 59229  46020.000000  0       4160085.547      -5526027.806       -866061.938
10 0 59229  46080.000000  0       4112777.320      -5612835.009       -418007.655
10 0 59229  46140.000000  0       4047454.491      -5675456.903         31823.643
10 0 59229  46200.000000  0       3964605.968      -5713473.200        481519.358
10 0 59229  46260.000000  0       3864798.768      -5726573.419        929167.491
10 0 59229  46320.000000  0       3748674.617      -5714558.863       1372865.123
10 0 59229  46380.000000  0       3616946.128      -5677344.002       1810726.869
10 0 59229  46440.000000  0       3470392.587      -5614957.267       2240893.094
10 0 59229  46500.000000  0       3309855.513      -5527541.364       2661537.987
10 0 59229  46560.000000  0       3136233.928      -5415353.055       3070877.504
10 0 59229  46620.000000  0       2950479.377      -5278762.315       3467177.110
10 0 59229  46680.000000  0       2753590.752      -5118250.923       3848759.171
10 0 59229  46740.000000  0       2546608.964      -4934410.603       4214010.117
10 0 59229  46800.000000  0       2330611.402      -4727940.590       4561387.309
10 0 59229  46860.000000  0       2106706.280      -4499644.653       4889425.454
10 0 59229  46920.000000  0       1876026.986      -4250427.714       5196742.644
10 0 59229  46980.000000  0       1639726.330      -3981291.999       5482046.122
10 0 59229  47040.000000  0       1398970.715      -3693332.663       5744137.536
10 0 59229  47100.000000  0       1154934.350      -3387733.055       5981917.697
10 0 59229  47160.000000  0        908793.525      -3065759.624       6194390.881
10 0 59229  47220.000000  0        661720.980      -2728756.515       6380668.699
10 0 59229  47280.000000  0        414880.349      -2378139.791       6539973.534
10 0 59229  47340.000000  0        169420.758      -2015391.385       6671641.445
10 0 59229  47400.000000  0        -73528.419      -1642052.855       6775124.708
10 0 59229  47460.000000  0       -312862.693      -1259718.792       6849993.958
10 0 59229  47520.000000  0       -547507.394       -870029.959       6895939.757
10 0 59229  47580.000000  0       -776422.390       -474666.292       6912773.707
10 0 59229  47640.000000  0       -998606.651        -75339.720       6900429.114
10 0 59229  47700.000000  0      -1213102.554        326213.185       6858961.168
10 0 59229  47760.000000  0      -1418999.933        728238.669       6788546.654
10 0 59229  47820.000000  0      -1615439.876       1128973.349       6689483.209
10 0 59229  47880.000000  0      -1801618.275       1526651.833       6562188.146
10 0 59229  47940.000000  0      -1976789.101       1919514.413       6407196.787
10 0 59229  48000.000000  0      -2140267.358       2305814.750       6225160.362
10 0 59229  48060.000000  0      -2291431.756       2683827.617       6016843.467
10 0 59229  48120.000000  0      -2429727.054       3051856.556       5783121.017
10 0 59229  48180.000000  0      -2554666.102       3408241.448       5524974.866
10 0 59229  48240.000000  0      -2665831.622       3751366.099       5243489.946
10 0 59229  48300.000000  0      -2762877.595       4079665.640       4939849.905
10 0 59229  48360.000000  0      -2845530.317       4391633.777       4615332.359
10 0 59229  48420.000000  0      -2913589.092       4685829.853       4271303.713
10 0 59229  48480.000000  0      -2966926.588       4960885.688       3909213.582
10 0 59229  48540.000000  0      -3005488.812       5215512.138       3530588.784
10 0 59229  48600.000000  0      -3029294.721       5448505.318       3137026.981
10 0 59229  48660.000000  0      -3038435.473       5658752.473       2730190.000
10 0 59229  48720.000000  0      -3033073.347       5845237.489       2311796.845
10 0 59229  48780.000000  0      -3013440.306       6007045.978       1883616.413
10 0 59229  48840.000000  0      -2979836.165       6143369.932       1447459.975
10 0 59229  48900.000000  0      -2932626.455       6253511.922       1005173.443
10 0 59229  48960.000000  0      -2872239.948       6336888.801        558629.413
10 0 59229  49020.000000  0      -2799165.874       6393034.847        109719.065
10 0 59229  49080.000000  0      -2713950.850       6421604.379       -339656.023
10 0 59229  49140.000000  0      -2617195.552       6422373.819       -787592.177
10 0 59229  49200.000000  0      -2509551.079       6395243.130      -1232192.003
10 0 59229  49260.000000  0      -2391715.032       6340236.584      -1671572.762
10 0 59229  49320.000000  0      -2264427.332       6257502.778      -2103874.540
10 0 59229  49380.000000  0      -2128465.922       6147314.203      -2527268.164
10 0 59229  49440.000000  0      -1984642.309       6010066.249      -2939963.011
10 0 59229  49500.000000  0      -1833797.010       5846275.676      -3340214.635
10 0 59229  49560.000000  0      -1676794.887       5656578.482      -3726332.226
10 0 59229  49620.000000  0      -1514520.405       5441727.162      -4096685.772
10 0 59229  49680.000000  0      -1347872.840       5202587.450      -4449712.861
10 0 59229  49740.000000  0      -1177761.486       4940134.609      -4783925.144
10 0 59229  49800.000000  0      -1005100.871       4655449.264      -5097914.509
10 0 59229  49860.000000  0       -830805.988       4349712.744      -5390358.899
10 0 59229  49920.000000  0       -655787.569       4024201.972      -5660027.746
10 0 59229  49980.000000  0       -480947.436       3680283.907      -5905786.987
10 0 59229  50040.000000  0       -307173.958       3319409.611      -6126603.623
10 0 59229  50100.000000  0       -135337.644       2943107.931      -6321549.810
10 0 59229  50160.000000  0         33713.085       2552978.940      -6489806.457
10 0 59229  50220.000000  0        199155.969       2150687.144      -6630666.449
10 0 59229  50280.000000  0        360198.800       1737954.402      -6743537.497
10 0 59229  50340.000000  0        516083.147       1316552.518      -6827944.492
99
